format  = 'OEF2.0'       ! file format
rectype = 'ML'           ! record type (1L/ML)
refsys  = ECLM J2000     ! default reference system
END_OF_HEADER
162173
! Keplerian elements: a, e, i, long. node, arg. peric., mean anomaly
 KEP   1.1895907948775988E+00  1.9038272614380122E-01   5.8841912864506 251.5874525155904 211.4478319657038  3.2874627648589876E+02
 MJD     58703.898243260 TDT
 MAG  19.464  0.150
! Non-gravitational parameters: model used, number of model parameters, dimension
 LSP   0  0    6
! PERIHELION   9.6311325635323008E-01
! APHELION   1.4160683334019675E+00
! ANODE   3.5439651517135023E-01
! DNODE   1.2002359788118905E-03
! MOID   9.5831644043067952E-04
! PERIOD   4.7390885029470479E+02
! PHA T
! VINFTY     5.0885605786088
! U_PAR 0.0
! ORB_TYPE Apollo
! RMS    8.53916E-10   8.73901E-09   9.00004E-07   6.19833E-06   6.38363E-06   2.10909E-06
 COV   7.291721388609389E-19 -7.577676018218309E-19 -5.087264721180437E-17
 COV  -1.568313799202645E-16 -6.938053291196328E-16  9.026902805140291E-16
 COV   7.637021121013257E-17  1.313419441970227E-15 -5.192867616852558E-15
 COV   1.912152255617267E-14 -6.826875506439944E-15  8.100071599488324E-13
 COV  -5.495489508941673E-13  8.469311569684306E-13 -1.422094595137605E-13
 COV   3.841928200408769E-11 -3.510563499888163E-11 -3.295183849096783E-12
 COV   4.075073856223399E-11 -2.813883024409451E-12  4.448250753556129E-12
 COR   1.000000000000000E+00 -1.015451076225483E-01 -6.619495254946241E-02
 COR  -2.963079531447107E-02 -1.272784436327088E-01  5.012208200565653E-01
 COR   1.000000000000000E+00  1.669925190199928E-01 -9.586733025084665E-02
 COR   3.427620504313915E-01 -3.703952058873887E-01  1.000000000000000E+00
 COR  -9.851159075525982E-02  1.474130524067047E-01 -7.491856089291803E-02
 COR   1.000000000000000E+00 -8.872264259933521E-01 -2.520637526742232E-01
 COR   9.999999999999999E-01 -2.089987395070531E-01  1.000000000000000E+00
